
 PEER Ground Motion Database, Time Series Search Report -- NGA-West2 -- 2025-11-21


 -- Summary of PEER Ground Motion Database Search Criteria --
Magnitude Min:, 5.0
Magnitude Max:, 7.0
Rrup Min (km):, 10.0
Rrup Max (km):, 30.0
Rjb Min (km):, 10.0
Rjb Max (km):, 20.0
Vs30 Min (m/sec):, 360.0
Vs30 Max (m/sec):, 760.0
D9-95 Min (sec):, 10.0
D9-95 Max (sec):, 70.0
Scale Factor Min:, 0.1
Scale Factor Max:, 5.0
Period Array:, 0.8,1,1.2
Weight Array:, 1,1,1
Record Sequence Number:, 
Earthquake Name:, 
Station Name:, 
User-Defined Maximum Number of Records:, 11
Pulse:, 1
Damping Ratio:, 0.05
Scaling Method:, Minimize MSE
Suite Average:, Arithmetic
Single-Period-Scaling Period (sec):, 
Component:, SRSS
Fault Type:, Reverse/Oblique


 -- Summary of Metadata of Selected Records --
Result ID, Spectral Ordinate, Record Sequence Number, Mean Squared Error, Scale Factor, Tp-Pulse Period (sec), 5-75% Duration (sec), 5-95% Duration (sec), Arias Intensity (m/sec), Earthquake Name, Year, Station Name, Magnitude, Mechanism, Rjb (km), Rrup (km), Vs30 (m/sec), Lowest Useable Frequency (Hz), Initial-search Scale Factor, Horizontal-1 Acc. Filename, Horizontal-2 Acc. Filename, Vertical Acc. Filename
1, SRSS, 755, 0.0075, 1.3757, -, 6.0, 15.7, 1.5, "Loma Prieta", 1989, "Coyote Lake Dam - Southwest Abutment", 6.93, Reverse Oblique, 19.97, 20.34, 561.43, 0.1625, 1.3787, RSN755_LOMAP_CYC195.AT2, RSN755_LOMAP_CYC285.AT2 , RSN755_LOMAP_CYC-UP.AT2  
2, SRSS, 1006, 0.0025, 1.9658, -, 5.8, 11.3, 1.6, "Northridge-01", 1994, "LA - UCLA Grounds", 6.69, Reverse, 13.8, 22.49, 398.42, 0.16, 1.9701, RSN1006_NORTHR_UCL090.AT2, RSN1006_NORTHR_UCL360.AT2 , RSN1006_NORTHR_UCL-UP.AT2  
3, SRSS, 2627, 0.0078, 0.9484, -, 3.7, 12.5, 1.0, "Chi-Chi_ Taiwan-03", 1999, "TCU076", 6.2, Reverse, 13.04, 14.66, 614.98, 0.07, 0.9505, RSN2627_CHICHI.03_TCU076N.AT2, RSN2627_CHICHI.03_TCU076E.AT2 , RSN2627_CHICHI.03_TCU076V.AT2  
4, SRSS, 2658, 0.0015, 1.6413, -, 4.2, 13.5, 1.4, "Chi-Chi_ Taiwan-03", 1999, "TCU129", 6.2, Reverse, 10.95, 12.83, 511.18, 0.08, 1.6449, RSN2658_CHICHI.03_TCU129N.AT2, RSN2658_CHICHI.03_TCU129E.AT2 , RSN2658_CHICHI.03_TCU129V.AT2  
5, SRSS, 4843, 0.0043, 2.6678, -, 7.2, 19.9, 0.7, "Chuetsu-oki_ Japan", 2007, "Matsushiro Tokamachi", 6.8, Reverse, 18.16, 25.03, 640.14, 0.05, 2.6736, RSN4843_CHUETSU_65006NS.AT2, RSN4843_CHUETSU_65006EW.AT2 , RSN4843_CHUETSU_65006UD.AT2  
6, SRSS, 4848, 0.0035, 2.5171, -, 6.1, 16.6, 0.7, "Chuetsu-oki_ Japan", 2007, "Joetsu Ogataku", 6.8, Reverse, 16.77, 17.93, 414.23, 0.0875, 2.5226, RSN4848_CHUETSU_65011NS.AT2, RSN4848_CHUETSU_65011EW.AT2 , RSN4848_CHUETSU_65011UD.AT2  
7, SRSS, 4882, 0.0077, 2.2193, -, 7.4, 22.7, 1.8, "Chuetsu-oki_ Japan", 2007, "Ojiya City", 6.8, Reverse, 15.89, 23.44, 430.16, 0.1, 2.2242, RSN4882_CHUETSU_65321NS.AT2, RSN4882_CHUETSU_65321EW.AT2 , RSN4882_CHUETSU_65321UD.AT2  
8, SRSS, 5265, 0.0039, 1.9683, -, 8.1, 22.8, 2.7, "Chuetsu-oki_ Japan", 2007, "NIG019", 6.8, Reverse, 15.78, 23.36, 372.33, 0.1125, 1.9726, RSN5265_CHUETSU_NIG019NS.AT2, RSN5265_CHUETSU_NIG019EW.AT2 , RSN5265_CHUETSU_NIG019UD.AT2  
9, SRSS, 5478, 0.0075, 1.6149, -, 6.7, 10.1, 2.3, "Iwate_ Japan", 2008, "AKT023", 6.9, Reverse, 11.68, 16.96, 555.96, 0.125, 1.6185, RSN5478_IWATE_AKT023NS.AT2, RSN5478_IWATE_AKT023EW.AT2 , RSN5478_IWATE_AKT023UD.AT2  
10, SRSS, 5664, 0.0056, 1.1367, -, 17.0, 42.5, 4.2, "Iwate_ Japan", 2008, "MYG005", 6.9, Reverse, 10.71, 13.47, 361.24, 0.0875, 1.1392, RSN5664_IWATE_MYG005NS.AT2, RSN5664_IWATE_MYG005EW.AT2 , RSN5664_IWATE_MYG005UD.AT2  
11, SRSS, 8833, 0.0039, 3.4464, -, 2.2, 11.0, 0.1, "14383980", 2008, "Puddingstone Reservoir", 5.39, Reverse Oblique, 14.6, 20.39, 462.66, 0.325, 3.4539, RSN8833_14383980_CIPSRHNN.AT2, RSN8833_14383980_CIPSRHNE.AT2 , RSN8833_14383980_CIPSRHNZ.AT2  

 These records were obtained from the NGA-West2 On-Line Ground-Motion Database Tool
 These records are UNSCALED, AS RECORDED
 Filename Extension: 
   ,AT2 = Acceleration
   ,VT2 = Velocity
   ,DT2 = Displacement
 The users of the NGA-West2 databases, flatfiles, models and reports are requested to acknowledge the Pacific Earthquake Engineering Research Center (PEER) in their work and publications.

 -- Scaled Spectra used in Search & Scaling --
Period (sec),Target pSa (g),Arithmetic Mean pSa (g),Arithmetic Mean + Sigma pSa (g),Arithmetic Mean - Sigma pSa (g),RSN-755 SRSS pSa (g),RSN-1006 SRSS pSa (g),RSN-2627 SRSS pSa (g),RSN-2658 SRSS pSa (g),RSN-4843 SRSS pSa (g),RSN-4848 SRSS pSa (g),RSN-4882 SRSS pSa (g),RSN-5265 SRSS pSa (g),RSN-5478 SRSS pSa (g),RSN-5664 SRSS pSa (g),RSN-8833 SRSS pSa (g)
0.01,0.6330412,0.92762381,1.311505,0.65610573,0.69973739,1.10643751,0.51877281,1.68949149,0.7239692,0.95593225,1.07900821,1.20730897,0.86353169,0.80890345,0.55076897
0.02,0.7067824,0.93046758,1.32021923,0.65577739,0.70861809,1.10522933,0.53402736,1.7244358,0.71691518,0.95031353,1.06138276,1.20187185,0.8671915,0.81434142,0.55081658
0.022,0.72346421,0.94455943,1.34604741,0.66282399,0.71024262,1.21797336,0.53688158,1.73658689,0.71794603,0.95675362,1.0649029,1.20437114,0.87182406,0.82052757,0.55214399
0.025,0.74645828,0.96432871,1.38142801,0.67316563,0.71393965,1.32914199,0.5479777,1.75141105,0.72012251,0.97022107,1.10177922,1.20875566,0.88020055,0.83218804,0.55187834
0.029,0.77407378,0.95832825,1.35852544,0.67602197,0.70626709,1.21037541,0.52437009,1.73112073,0.72622208,0.99075188,1.11711758,1.21435438,0.89404195,0.86829592,0.55869366
0.03,0.7805236,0.96115543,1.35608747,0.68123907,0.70424387,1.1771277,0.52862021,1.72706867,0.72797031,0.99629,1.12374613,1.2229946,0.90013493,0.90345178,0.56106153
0.032,0.79649235,0.97338318,1.35919568,0.69708493,0.71756617,1.20795478,0.54496931,1.70046232,0.73108011,1.01098719,1.12356007,1.23514802,0.91749649,0.96254561,0.55544496
0.035,0.81920824,0.99584138,1.38726117,0.71486182,0.74201917,1.30841516,0.58358381,1.7255423,0.73677924,1.0088431,1.11055976,1.24962791,0.92968081,0.99346897,0.56573492
0.036,0.8264823,0.99556073,1.39233943,0.71185312,0.74926762,1.30778391,0.58786789,1.74925593,0.73741832,1.02158055,1.11679695,1.24725207,0.91379211,0.94895256,0.57120014
0.04,0.8542648,1.00639438,1.41493578,0.71581316,0.76559749,1.25530363,0.60436084,1.81272231,0.73195557,0.98546281,1.14852874,1.26090668,0.98266521,0.9617185,0.56111637
0.042,0.86987081,1.03203248,1.45290701,0.73307585,0.78770103,1.346643,0.59097407,1.84343466,0.73914368,0.95943877,1.15399074,1.23657362,1.07031077,1.04983753,0.57430946
0.044,0.88501613,1.05242315,1.47962888,0.74856236,0.80741378,1.37299713,0.58246954,1.86235175,0.73895999,0.99964462,1.15342488,1.23527622,1.15214417,1.08721933,0.58475322
0.045,0.8924267,1.05387783,1.48440731,0.74821679,0.81316911,1.37797038,0.58202381,1.87645524,0.73887603,1.01181154,1.15306409,1.24821361,1.11676653,1.08688762,0.58741812
0.046,0.8997344,1.0660236,1.50301951,0.75608222,0.81476405,1.38754733,0.58842672,1.90350794,0.74279514,1.01169936,1.15131572,1.25686926,1.14995696,1.12045865,0.5989185
0.048,0.91405548,1.087726,1.53191966,0.77233023,0.84318207,1.34162445,0.59495788,1.95336253,0.75688309,1.01385391,1.15720366,1.24271951,1.18143901,1.26654304,0.6132169
0.05,0.928006,1.10683359,1.55994732,0.78533459,0.85144254,1.28307323,0.5882125,1.97105949,0.76108952,1.05797165,1.1685574,1.21120018,1.29084112,1.36972142,0.62200045
0.055,0.96585118,1.14105724,1.63810078,0.79482998,0.86687875,1.32643975,0.58912069,2.03559969,0.79896826,1.154334,1.2140106,1.21001467,1.61268824,1.15761314,0.58596182
0.06,1.0017472,1.17952896,1.6775973,0.82933405,0.8109557,1.46908132,0.65509903,2.02916725,0.75848746,1.24912044,1.27661113,1.22709885,1.57620428,1.30506746,0.61792563
0.065,1.03938332,1.25732669,1.83568423,0.86118864,0.80118863,1.60293739,0.67169509,2.16948303,0.80780183,1.23216371,1.35856915,1.26107982,1.73482317,1.59263954,0.59821226
0.067,1.05399911,1.28574723,1.89492102,0.87240889,0.81638048,1.72368284,0.66374412,2.2001339,0.79341969,1.22446854,1.40980132,1.291745,1.70444649,1.71918441,0.59621279
0.07,1.0754884,1.3527528,2.04292472,0.89574527,0.79908147,1.8071488,0.65176907,2.26451765,0.8086703,1.27322046,1.45863427,1.32718373,1.89446351,1.99471865,0.60087293
0.075,1.11297816,1.48927664,2.33556223,0.94964068,0.80956416,1.99389575,0.6166557,2.42121648,0.89714388,1.55641515,1.45791561,1.38346335,2.03795237,2.57817317,0.6296474
0.08,1.1492296,1.52991483,2.47156713,0.94702643,0.79889415,1.87822432,0.57028232,2.4164487,0.94664047,1.63385366,1.43506542,1.39552927,2.1229435,2.9705171,0.66066426
0.085,1.18661237,1.56883745,2.58438569,0.95235434,0.81221512,2.16247673,0.54970813,2.28620474,0.99368622,1.60756446,1.63056486,1.32835999,2.01450775,3.24081456,0.63110935
0.09,1.2229708,1.66400961,2.71089541,1.02140716,0.84700302,2.47394687,0.56017639,2.20055885,1.01325698,1.83993383,1.66994387,1.39123583,2.62923619,3.04418939,0.63462449
0.095,1.26027272,1.72232379,2.8047861,1.05762048,0.85125423,2.69672484,0.56659767,2.27140345,1.00954027,1.9373747,1.72894786,1.3963928,3.01784762,2.75331584,0.71616237
0.1,1.296712,1.75902164,2.80632988,1.10256358,0.87492504,2.75193474,0.57324429,2.31021114,1.13899968,1.9191769,1.93748338,1.4645927,3.15630856,2.45513172,0.76722984
0.11,1.34232,1.74433319,2.61017798,1.16570529,0.88924143,2.50318836,0.56891656,2.25712026,1.32583565,1.79110323,2.38973184,1.65056329,2.23553187,2.69310151,0.88333109
0.12,1.34232,1.83968532,2.75845874,1.22693228,1.09807596,2.40218119,0.63962971,2.7448726,1.25038506,1.86269351,2.76705488,1.59150122,2.16455104,2.75426535,0.961328
0.13,1.34232,1.85544083,2.8423866,1.21118664,1.1346818,1.98849411,0.68038212,3.11385685,1.23384803,1.88997617,3.10222989,1.49917943,2.55363504,2.20156199,1.0120037
0.133,1.34232,1.84242598,2.85104144,1.19062931,1.10495512,1.93307556,0.68845422,3.06071628,1.21858859,1.85588074,3.1893211,1.47480162,2.66579782,2.06066947,1.01442528
0.14,1.34232,1.87054012,2.93530289,1.19201338,1.06032958,2.20392849,0.69814183,2.99491067,1.26620392,2.12288697,3.56374085,1.54753287,2.38703622,1.70540985,1.02582005
0.15,1.34232,1.918513,3.09511002,1.18919589,1.18857855,2.30160932,0.66573021,3.09440811,1.42922919,2.2775075,3.91387609,1.58157976,2.24092983,1.35414742,1.05604697
0.16,1.34232,1.9543154,3.10940516,1.22832132,1.07589677,2.05586528,0.66527785,3.46117022,1.77004626,2.52275184,3.55635194,1.70344509,2.32881321,1.27129559,1.0865553
0.17,1.34232,2.09570963,3.46829814,1.26632679,1.05257841,2.27875905,0.69295622,3.78926594,1.82194971,3.02371765,3.84147348,1.80457355,2.56389376,1.09649088,1.08714728
0.18,1.34232,2.14881308,3.63755087,1.26936991,1.04670036,2.28817577,0.76812361,3.98570104,1.96461244,3.73728507,3.75600759,1.83427437,2.11073362,1.03723469,1.10809528
0.19,1.34232,2.17458123,3.7557798,1.2590737,0.98405126,2.12547996,0.85497576,4.21074877,1.97264129,3.82377971,3.87828619,1.91704725,2.02660332,1.01282489,1.11395518
0.2,1.34232,2.09826596,3.51105781,1.25395828,1.16834999,2.15558445,0.89050293,3.98424622,1.68678186,3.44311598,3.70579826,2.09149149,1.91654395,0.90132593,1.13718446
0.22,1.34232,1.98091514,2.954144,1.32831196,1.09681864,2.87108445,0.96909245,2.82677974,1.77535585,2.91346618,3.02092855,2.02868904,2.0972473,1.05700932,1.13359504
0.24,1.34232,1.90499672,2.99304295,1.2124826,1.08453553,3.59309372,0.90865487,2.09572278,1.71812354,2.19891152,3.21685427,2.3901843,1.6336206,0.98868314,1.12657963
0.25,1.34232,1.77001528,2.64708585,1.18354836,1.03507061,2.84777655,0.82510122,1.84167596,1.86139957,2.08900709,2.90828106,2.43933484,1.54767799,0.9823594,1.09248384
0.26,1.34232,1.67962799,2.44097889,1.15574542,0.96582085,2.28722019,0.79863073,1.76070037,1.83183669,2.02475786,2.87181286,2.22651195,1.62152663,1.04790084,1.03918888
0.28,1.34232,1.6227419,2.32158012,1.1342668,1.12880798,1.9672122,0.83100991,1.58892143,1.97121339,2.10083558,1.99372983,2.73968431,1.68340983,0.87052168,0.97481471
0.29,1.34232,1.62636965,2.42522465,1.09065287,1.17554942,1.69457803,0.8368307,1.45462894,2.21025648,2.04412268,1.81602391,3.06926575,1.82456542,0.83620586,0.92803893
0.3,1.34232,1.59532303,2.46767861,1.03135617,1.19056069,1.47213083,0.81779218,1.33172908,2.28252155,2.0151194,1.80226973,3.23904754,1.67241485,0.84583649,0.87913095
0.32,1.34232,1.56099731,2.56953674,0.94830814,1.23313075,1.52130078,0.80740886,1.27748428,1.83074122,1.82157052,1.76019815,3.74009908,1.43957013,0.89758544,0.84188121
0.34,1.34232,1.60205649,2.70928493,0.94732931,1.26955611,1.5103409,0.88175253,1.41762655,1.70729473,1.73686736,1.96279079,4.00656737,1.44479826,0.8734496,0.81157724
0.35,1.34232,1.6493181,2.93104758,0.92808122,1.2278707,1.53900051,0.9441084,1.44718899,1.79156138,1.69999677,1.95513994,4.4212656,1.44269382,0.87005874,0.8036143
0.36,1.34232,1.6820473,2.97664376,0.95049437,1.28723367,1.54805539,1.01207498,1.49936908,1.85182312,1.70385982,1.8538397,4.51184712,1.53840734,0.89752867,0.79848145
0.38,1.34232,1.64644831,2.83725555,0.95542753,1.34556461,1.47787795,1.10585895,1.74396194,1.8917175,1.51033526,1.59916641,4.28732482,1.48709094,0.84465391,0.81737916
0.4,1.34232,1.61511447,2.89900123,0.89982533,1.2157683,1.30177376,1.16754294,1.92656379,1.82881098,1.4698242,1.41159777,4.40471492,1.44620636,0.74393957,0.84951653
0.42,1.34232,1.53474508,2.80013062,0.84119021,1.09400181,1.13141159,1.20175811,2.05036014,1.59901514,1.45200995,1.18597286,4.23951969,1.36754962,0.68119856,0.87939839
0.44,1.34232,1.5170904,2.6884967,0.85607815,1.07667892,1.10470142,1.19978655,2.11175076,1.7289642,1.38690545,1.17614507,4.00102478,1.32159373,0.6727749,0.90766858
0.45,1.34232,1.52090684,2.64557521,0.8743496,1.15959035,1.09070153,1.1927105,2.10559018,1.80736087,1.35189157,1.14897969,3.90634824,1.36800911,0.67981243,0.91898082
0.46,1.34232,1.5156799,2.55980232,0.89744646,1.2264727,1.07350992,1.19003459,2.09605317,1.88887516,1.31525808,1.1364353,3.73609447,1.33030272,0.74869498,0.93074776
0.48,1.336257,1.48123153,2.26905547,0.96694279,1.27466987,1.14366512,1.18137488,2.08115192,1.98545132,1.25129681,1.15573958,3.10311569,1.35117914,0.82327618,0.94262628
0.5,1.28280672,1.43265146,2.0179954,1.0170936,1.37352561,1.26437706,1.14640139,1.99453911,2.06338259,1.1886676,1.1412481,2.47869994,1.30498043,0.8595914,0.94375282
0.55,1.16618793,1.31877897,1.78758028,0.972923,1.49419058,1.339752,1.09383666,1.54032008,1.80888495,0.94499172,1.16522329,2.23935007,0.99342662,0.95225018,0.93434249
0.6,1.0690056,1.25360421,1.79863628,0.87373058,1.6728172,1.06138015,1.06643984,1.19005983,2.22450793,0.82335097,1.00650157,1.95769194,0.93370258,0.94017879,0.9130155
0.65,0.9867744,1.2220232,1.71131825,0.87262595,1.72086548,1.24948847,1.04955299,1.01962165,2.1999257,0.78966013,0.94715137,1.54457616,1.12605405,0.90562568,0.88973354
0.667,0.96162423,1.19725326,1.63478011,0.87682458,1.62313129,1.32902917,1.0560908,0.93488522,2.03875958,0.74609277,1.01743521,1.48310147,1.20423639,0.85554805,0.88147595
0.7,0.91629051,1.06858628,1.35033579,0.84562421,1.29882688,1.27226176,1.05266496,0.78268687,1.5140652,0.71269813,1.09943928,1.24740579,1.16265641,0.74904055,0.86270325
0.75,0.85520448,0.88805042,0.99723096,0.79082337,0.92566888,0.98279277,0.96319564,0.76788054,0.99607562,0.85187785,0.9611565,0.96446891,0.87482033,0.64500321,0.83561433
0.8,0.8017542,0.80988565,0.86226312,0.7606898,0.88171579,0.82215509,0.88935535,0.79145469,0.82037719,0.76730649,0.81804484,0.83855146,0.7874017,0.6964979,0.79588166
0.85,0.75459219,0.74947874,0.80879854,0.69450964,0.79873707,0.80332074,0.8407247,0.73459798,0.7338348,0.7246281,0.61359627,0.77635668,0.73845432,0.71147114,0.76854434
0.9,0.7126704,0.72468084,0.7503375,0.69990147,0.70314902,0.74587762,0.75649636,0.69441656,0.70263224,0.6960587,0.74828645,0.75411944,0.71214186,0.70440636,0.7539046
0.95,0.67516143,0.69341302,0.72847675,0.66003701,0.72051524,0.64185078,0.66619764,0.68973625,0.72164016,0.62775957,0.73180523,0.69944528,0.68094007,0.73090224,0.71675073
1.0,0.64140336,0.65432037,0.69991677,0.61169436,0.66780229,0.63064257,0.60556925,0.68406685,0.68610465,0.63634559,0.63616359,0.55999891,0.71851766,0.70431705,0.66799562
1.1,0.58309396,0.57246866,0.61332456,0.53433434,0.52021221,0.58859758,0.53863131,0.59717683,0.50746058,0.63110488,0.58760934,0.56072148,0.6327497,0.58443401,0.54845739
1.2,0.5345028,0.50933757,0.55479858,0.4676017,0.46236451,0.48830347,0.46627431,0.50379696,0.53924066,0.5873786,0.5577701,0.53151642,0.44706551,0.54572343,0.47327926
1.3,0.4933872,0.50444096,0.62415774,0.4076865,0.39085219,0.49841893,0.4028438,0.3886897,0.50331389,0.69063789,0.60989936,0.61467316,0.42695724,0.62581281,0.39675164
1.4,0.45814526,0.48863917,0.63419783,0.37648858,0.41968667,0.53119165,0.34627448,0.31006534,0.48466474,0.66395535,0.56034486,0.57845544,0.45696342,0.70381538,0.31961357
1.5,0.42760224,0.45516569,0.66250598,0.31271538,0.39786247,0.55046367,0.29438252,0.27681544,0.4052833,0.69781585,0.41332584,0.4613744,0.42279549,0.83603014,0.25067352
1.6,0.4008771,0.40673612,0.61141092,0.27057788,0.34094991,0.49658,0.25470875,0.25618533,0.36189321,0.71545135,0.36616119,0.39252365,0.34967422,0.72857893,0.21139078
1.7,0.37729609,0.35646767,0.52680506,0.24120725,0.3142031,0.38258182,0.22455631,0.23228412,0.32984786,0.62730563,0.3268792,0.37107972,0.30694591,0.62189453,0.18356614
1.8,0.3563352,0.32645215,0.52571058,0.20271801,0.29087292,0.31063577,0.19893425,0.20364262,0.28794949,0.64000111,0.27834322,0.32607579,0.25630016,0.63961306,0.15860523
1.9,0.33758072,0.3170071,0.55225502,0.18196938,0.2724925,0.31019978,0.17519223,0.17469071,0.27339718,0.62569018,0.27437842,0.2666904,0.25989105,0.71801646,0.13643924
2.0,0.32070168,0.31459459,0.56141973,0.17628478,0.27821158,0.32712325,0.15321785,0.16631351,0.25990054,0.57029401,0.30891727,0.24498561,0.26835014,0.76412704,0.11909964
2.2,0.29154698,0.34136853,0.71002074,0.16412545,0.23795927,0.42646951,0.11647751,0.1894087,0.24313868,0.5720912,0.32168669,0.27911008,0.25905112,1.01895069,0.09071036
2.4,0.2672514,0.31365413,0.69979925,0.14058162,0.19785867,0.37623239,0.09388049,0.18539578,0.21399532,0.39263227,0.36534222,0.29325782,0.22194394,1.04003671,0.06961979
2.5,0.25656134,0.29230257,0.67407549,0.12675256,0.17127183,0.32441588,0.0933435,0.17990186,0.20068236,0.32482822,0.36788251,0.27558292,0.2025999,1.00890184,0.06591743
2.6,0.24593454,0.26926477,0.62497051,0.1160111,0.14727393,0.26784396,0.09072427,0.17413881,0.18637619,0.32742454,0.33786134,0.25237388,0.1804328,0.93530006,0.0621627
2.8,0.21205581,0.23353371,0.52472592,0.10393615,0.11145271,0.18583406,0.08389067,0.16224419,0.16325293,0.32221,0.29115408,0.2420424,0.17568248,0.77798271,0.05312455
3.0,0.18472417,0.21485127,0.50032935,0.09226136,0.09951301,0.13865414,0.07604019,0.15916862,0.14175943,0.35455403,0.26180163,0.21136512,0.14723885,0.72626127,0.04700767
3.2,0.16235523,0.20757776,0.55451679,0.07770464,0.08557905,0.11261076,0.06621739,0.14757854,0.14099311,0.36273156,0.23224571,0.18723506,0.11231633,0.79411224,0.0417356
3.4,0.14381639,0.17881549,0.44386035,0.07203838,0.07112788,0.10920692,0.05634405,0.13121186,0.16718045,0.34119387,0.17716134,0.15203786,0.09532136,0.62908202,0.03710278
3.5,0.13571572,0.1622576,0.38562604,0.06827217,0.06973873,0.1066144,0.05169219,0.12292394,0.16855106,0.31203565,0.15007116,0.13514777,0.08799924,0.54505945,0.03499997
3.6,0.12828067,0.15031722,0.35235199,0.06412698,0.0686348,0.10114214,0.04753277,0.11691437,0.16574439,0.28442886,0.13687234,0.12152969,0.07878275,0.49887804,0.03302932
3.8,0.11513279,0.13178083,0.30558213,0.05682985,0.06682298,0.0873997,0.04168056,0.10710716,0.14546018,0.24746259,0.12178355,0.09790945,0.07070523,0.43378419,0.02947349
4.0,0.10390734,0.11624725,0.25445023,0.05310832,0.06804489,0.07826412,0.0397887,0.10055366,0.13431821,0.20663464,0.10942612,0.08481896,0.06666876,0.36383317,0.02636854
4.2,0.09424702,0.10376348,0.20934808,0.05143042,0.0670313,0.07026022,0.03963159,0.09617915,0.12524838,0.17527515,0.09964853,0.08265406,0.06396491,0.29784113,0.02366381
4.4,0.08587384,0.09643701,0.1880089,0.04946626,0.06221823,0.06369799,0.03929572,0.09273937,0.11044326,0.15320127,0.10226824,0.08765253,0.05965063,0.26832762,0.0213123
